IPERDRONE.0             
1 60520U 24149BE  26194.77859293  .00061607  00000+0  49324-3 0  9999
2 60520  97.3777 289.3835 0004245 170.0036 190.1311 15.70872434107088
TRANSPORTER-11 OBJECT BF
1 60521U 24149BF  26194.81221866  .00789203  33511-3  95827-3 0  9999
2 60521  97.3796 293.1972 0010964 243.2753 116.7408 16.08087355107329
CONNECTA IOT-2          
1 60522U 24149BG  26194.77046622  .00002556  00000+0  10783-3 0  9990
2 60522  97.3839 272.5155 0005436 218.3613 141.7239 15.24187365105943
CONNECTA IOT-4          
1 60524U 24149BJ  26194.80238840  .00012439  00000+0  28272-3 0  9994
2 60524  97.3802 279.5046 0005850 179.3848 180.7408 15.43132587106430
ORESAT0.5               
1 60525U 24149BK  26194.72755253  .00012586  00000+0  25901-3 0  9997
2 60525  97.3729 281.1516 0006064 169.3545 190.7833 15.46069799106576
DEIMOS                  
1 60526U 24149BL  26194.77494069  .00011974  00000+0  25430-3 0  9995
2 60526  97.3788 281.3254 0005835 173.9343 186.1977 15.45157346106556
CUAVA-2                 
1 60527U 24149BM  26194.78590065  .00007447  00000+0  20982-3 0  9997
2 60527  97.3729 276.3596 0006614 184.4318 175.6869 15.36712391106257
ERNST                   
1 60528U 24149BN  26194.81827550  .00008150  00000+0  20716-3 0  9991
2 60528  97.3809 278.7494 0006034 184.0709 176.0489 15.39872548106376
TORO                    
1 60530U 24149BQ  26194.71847884  .00000434  00000+0  43197-4 0  9991
2 60530  97.6780 268.8914 0001174  95.6218 264.5138 14.96514866103929
HYPSO-2                 
1 60531U 24149BR  26194.70407687  .00001766  00000+0  15084-3 0  9996
2 60531  97.6845 270.5790 0001917 100.1468 259.9971 14.98930507104029
LEMU NGE                
1 60532U 24149BS  26194.75672168  .00001479  00000+0  14019-3 0  9998
2 60532  97.6836 269.1797 0000628  79.5786 280.5505 14.95056706103929
LEMUR-2-STELLA          
1 60533U 24149BT  26194.75047204  .00005858  00000+0  34165-3 0  9995
2 60533  97.6740 277.3306 0001265 112.4511 247.6853 15.12354035104514
SATELIOT_2              
1 60534U 24149BU  26194.70672074  .00000850  00000+0  79901-4 0  9995
2 60534  97.6825 269.1793 0001692  77.4963 282.6448 14.96457017103932
NIGHTJAR                
1 60535U 24149BV  26194.75820308  .00002239  00000+0  18888-3 0  9995
2 60535  97.6838 271.0918 0002611  99.5115 260.6403 14.99162822146859
LEMUR-2-MARHISYAM       
1 60536U 24149BW  26194.01272818  .00006657  00000+0  39418-3 0  9992
2 60536  97.6885 277.0636 0002715  73.2664 286.8864 15.11754239104385
SATELIOT_4              
1 60537U 24149BX  26194.77902304  .00000423  00000+0  41937-4 0  9991
2 60537  97.6733 268.7596 0001181 356.3097   3.8116 14.96757392103955
PICO-02A021             
1 60538U 24149BY  26189.73169079  .00002640  00000+0  19831-3 0  9996
2 60538  97.6747 268.3815 0003200 317.3767  42.7209 15.03460922102971
ICEYE-X43               
1 60539U 24149BZ  26194.78382374  .00000857  00000+0  74090-4 0  9990
2 60539  97.6807 271.3924 0006651 354.1673   5.9472 14.99784648104100
HAWK-10A                
1 60540U 24149CA  26194.78057854  .00000343  00000+0  35123-4 0  9998
2 60540  97.6892 270.2353 0003289  10.2735 349.8553 14.96591152103969
UMBRA-09                
1 60541U 24149CB  26194.82233920  .00009069  00000+0  43880-3 0  9996
2 60541  97.6978 282.4978 0001885 204.2965 155.8180 15.18823322104765
QPS-SAR-8 (AMATERU-IV)  
1 60542U 24149CC  26194.80137220  .00002321  00000+0  17066-3 0  9992
2 60542  97.6666 273.7314 0003985  49.1090 311.0481 15.04389286104272
ARCTIC WEATHER SATELLITE
1 60543U 24149CD  26194.75082128  .00000441  00000+0  51491-4 0  9995
2 60543  97.6790 264.4559 0002960  52.3222 307.8264 14.89802282103251
CAPELLA-15 (ACADIA-5)   
1 60544U 24149CE  26194.80637707  .00002236  00000+0  22368-3 0  9995
2 60544  97.6722 267.0506 0004540   1.1671 358.9559 14.92406856103822
HAWK-10B                
1 60545U 24149CF  26194.78044029  .00000289  00000+0  30446-4 0  9995
2 60545  97.6811 269.5632 0005631  19.5426 340.6010 14.96590206103964
ICEYE-X39               
1 60546U 24149CG  26194.76064160  .00002335  00000+0  19211-3 0  9992
2 60546  97.6787 271.4254 0006973  50.8202 309.3640 15.00066506104104
UMBRA-10                
1 60547U 24149CH  26194.75600213  .00008275  00000+0  40075-3 0  9998
2 60547  97.6985 282.4601 0001572 166.4976 193.6300 15.18823782104760
ICEYE-X33               
1 60548U 24149CJ  26194.16976218  .00002776  00000+0  22290-3 0  9994
2 60548  97.7342 273.1806 0002019  79.7590 280.3862 15.00875982104103
ICEYE-X40               
1 60549U 24149CK  26193.75245365  .00001336  00000+0  11788-3 0  9992
2 60549  97.6800 269.8364 0004271  12.3091 347.8235 14.98059522103904
SATELIOT_1              
1 60550U 24149CL  26194.74333712  .00001062  00000+0  94430-4 0  9990
2 60550  97.6733 270.1998 0005824 356.6677   3.4505 14.98159275104045
BRO-14                  
1 60551U 24149CM  26194.67868809  .00000772  00000+0  73522-4 0  9999
2 60551  97.6862 269.9800 0006853  22.2119 337.9398 14.96232953103954
