OBJECT_NAME,OBJECT_ID,EPOCH,MEAN_MOTION,ECCENTRICITY,INCLINATION,RA_OF_ASC_NODE,ARG_OF_PERICENTER,MEAN_ANOMALY,EPHEMERIS_TYPE,CLASSIFICATION_TYPE,NORAD_CAT_ID,ELEMENT_SET_NO,REV_AT_EPOCH,BSTAR,MEAN_MOTION_DOT,MEAN_MOTION_DDOT
IPERDRONE.0,2024-149BE,2026-07-13T18:41:10.429152,15.70872434,.0004245,97.3777,289.3835,170.0036,190.1311,0,U,60520,999,10708,.49324E-3,.61607E-3,0
TRANSPORTER-11 OBJECT BF,2024-149BF,2026-07-13T19:29:35.692224,16.08087355,.0010964,97.3796,293.1972,243.2753,116.7408,0,U,60521,999,10732,.95827E-3,.789203E-2,.33511E-3
CONNECTA IOT-2,2024-149BG,2026-07-13T18:29:28.281408,15.24187365,.0005436,97.3839,272.5155,218.3613,141.7239,0,U,60522,999,10594,.10783E-3,.2556E-4,0
CONNECTA IOT-4,2024-149BJ,2026-07-13T19:15:26.357760,15.43132587,.000585,97.3802,279.5046,179.3848,180.7408,0,U,60524,999,10643,.28272E-3,.12439E-3,0
ORESAT0.5,2024-149BK,2026-07-13T17:27:40.538592,15.46069799,.0006064,97.3729,281.1516,169.3545,190.7833,0,U,60525,999,10657,.25901E-3,.12586E-3,0
DEIMOS,2024-149BL,2026-07-13T18:35:54.875616,15.45157346,.0005835,97.3788,281.3254,173.9343,186.1977,0,U,60526,999,10655,.2543E-3,.11974E-3,0
CUAVA-2,2024-149BM,2026-07-13T18:51:41.816160,15.36712391,.0006614,97.3729,276.3596,184.4318,175.6869,0,U,60527,999,10625,.20982E-3,.7447E-4,0
ERNST,2024-149BN,2026-07-13T19:38:19.003200,15.39872548,.0006034,97.3809,278.7494,184.0709,176.0489,0,U,60528,999,10637,.20716E-3,.815E-4,0
TORO,2024-149BQ,2026-07-13T17:14:36.571776,14.96514866,.0001174,97.6780,268.8914,95.6218,264.5138,0,U,60530,999,10392,.43197E-4,.434E-5,0
HYPSO-2,2024-149BR,2026-07-13T16:53:52.241568,14.98930507,.0001917,97.6845,270.5790,100.1468,259.9971,0,U,60531,999,10402,.15084E-3,.1766E-4,0
LEMU NGE,2024-149BS,2026-07-13T18:09:40.753152,14.95056706,.0000628,97.6836,269.1797,79.5786,280.5505,0,U,60532,999,10392,.14019E-3,.1479E-4,0
LEMUR-2-STELLA,2024-149BT,2026-07-13T18:00:40.784256,15.12354035,.0001265,97.6740,277.3306,112.4511,247.6853,0,U,60533,999,10451,.34165E-3,.5858E-4,0
SATELIOT_2,2024-149BU,2026-07-13T16:57:40.671936,14.96457017,.0001692,97.6825,269.1793,77.4963,282.6448,0,U,60534,999,10393,.79901E-4,.85E-5,0
NIGHTJAR,2024-149BV,2026-07-13T18:11:48.746112,14.99162822,.0002611,97.6838,271.0918,99.5115,260.6403,0,U,60535,999,14685,.18888E-3,.2239E-4,0
LEMUR-2-MARHISYAM,2024-149BW,2026-07-13T00:18:19.714752,15.11754239,.00027158,97.6885,277.0636,73.2664,286.8864,0,U,60536,999,10438,.39418223E-3,.6657E-4,0
SATELIOT_4,2024-149BX,2026-07-13T18:41:47.590656,14.96757392,.0001181,97.6733,268.7596,356.3097,3.8116,0,U,60537,999,10395,.41937E-4,.423E-5,0
PICO-02A021,2024-149BY,2026-07-08T17:33:38.084256,15.03460922,.00032008,97.6747,268.3815,317.3767,42.7209,0,U,60538,999,10297,.19830685E-3,.264E-4,0
ICEYE-X43,2024-149BZ,2026-07-13T18:48:42.371136,14.99784648,.0006651,97.6807,271.3924,354.1673,5.9472,0,U,60539,999,10410,.7409E-4,.857E-5,0
HAWK-10A,2024-149CA,2026-07-13T18:44:01.985856,14.96591152,.0003289,97.6892,270.2353,10.2735,349.8553,0,U,60540,999,10396,.35123E-4,.343E-5,0
UMBRA-09,2024-149CB,2026-07-13T19:44:10.106880,15.18823322,.0001885,97.6978,282.4978,204.2965,155.8180,0,U,60541,999,10476,.4388E-3,.9069E-4,0
QPS-SAR-8 (AMATERU-IV),2024-149CC,2026-07-13T19:13:58.558080,15.04389286,.0003985,97.6666,273.7314,49.1090,311.0481,0,U,60542,999,10427,.17066E-3,.2321E-4,0
ARCTIC WEATHER SATELLITE,2024-149CD,2026-07-13T18:01:10.958592,14.89802282,.000296,97.6790,264.4559,52.3222,307.8264,0,U,60543,999,10325,.51491E-4,.441E-5,0
CAPELLA-15 (ACADIA-5),2024-149CE,2026-07-13T19:21:10.978848,14.92406856,.000454,97.6722,267.0506,1.1671,358.9559,0,U,60544,999,10382,.22368E-3,.2236E-4,0
HAWK-10B,2024-149CF,2026-07-13T18:43:50.041056,14.96590206,.0005631,97.6811,269.5632,19.5426,340.6010,0,U,60545,999,10396,.30446E-4,.289E-5,0
ICEYE-X39,2024-149CG,2026-07-13T18:15:19.434240,15.00066506,.0006973,97.6787,271.4254,50.8202,309.3640,0,U,60546,999,10410,.19211E-3,.2335E-4,0
UMBRA-10,2024-149CH,2026-07-13T18:08:38.584032,15.18823782,.0001572,97.6985,282.4601,166.4976,193.6300,0,U,60547,999,10476,.40075E-3,.8275E-4,0
ICEYE-X33,2024-149CJ,2026-07-13T04:04:27.452352,15.00875982,.00020198,97.7342,273.1806,79.7590,280.3862,0,U,60548,999,10410,.22290095E-3,.2776E-4,0
ICEYE-X40,2024-149CK,2026-07-12T18:03:31.995360,14.98059522,.0004271,97.6800,269.8364,12.3091,347.8235,0,U,60549,999,10390,.11788E-3,.1336E-4,0
SATELIOT_1,2024-149CL,2026-07-13T17:50:24.327168,14.98159275,.0005824,97.6733,270.1998,356.6677,3.4505,0,U,60550,999,10404,.9443E-4,.1062E-4,0
BRO-14,2024-149CM,2026-07-13T16:17:18.650976,14.96232953,.0006853,97.6862,269.9800,22.2119,337.9398,0,U,60551,999,10395,.73522E-4,.772E-5,0
